0 CZ-2C R/B
1 37766U 11039B   26091.47603954  .00000753  00000-0  13168-3 0  9996
2 37766  98.1131 349.5989 0042318 192.9446 167.0677 14.70277319785526